COSMOS 2425 (716)       
1 29670U 06062A   20183.40210194 -.00000006  00000-0  00000-0 0  9990
2 29670  64.9520 267.3205 0022923 342.0442 122.1242  2.13107447105193
COSMOS 2433 (720)       
1 32275U 07052A   20183.19148036 -.00000043  00000-0  10000-3 0  9991
2 32275  65.9852  28.4646 0000803 246.1836 241.6653  2.13104263 98700
COSMOS 2432 (719)       
1 32276U 07052B   20183.03909340 -.00000043  00000-0  10000-3 0  9998
2 32276  65.9979  28.5575 0009833 340.3710 340.7534  2.13103771 98693
COSMOS 2434 (721)       
1 32393U 07065A   20184.57827174  .00000007  00000-0  00000+0 0  9990
2 32393  64.5671 265.9032 0002973 120.0755 239.3149  2.13103146 97434
COSMOS 2436 (723)       
1 32395U 07065C   20184.46640850  .00000006  00000-0  10000-3 0  9998
2 32395  64.5765 265.9546 0013103 358.6682  51.1476  2.13103121 97374
COSMOS 2456 (730)       
1 36111U 09070A   20184.90763022  .00000013  00000-0  00000-0 0  9996
2 36111  64.2318 145.5629 0006217 305.4715 120.0420  2.13102993 82112
COSMOS 2457 (733)       
1 36112U 09070B   20185.24696581  .00000008  00000-0  00000-0 0  9994
2 36112  64.2141 145.4439 0004662 194.6961 254.3299  2.13101564 82127
COSMOS 2459 (731)       
1 36400U 10007A   20185.34400359 -.00000049  00000-0  10000-3 0  9993
2 36400  65.8863  27.3619 0025461 354.6418 200.0515  2.13105363 80474
COSMOS 2461 (735)       
1 36401U 10007B   20180.32804927 -.00000042  00000-0  10000-3 0  9999
2 36401  65.8838  27.4955 0009013  68.8947 145.6603  2.13102183 80364
COSMOS 2460 (732)       
1 36402U 10007C   20185.36084927 -.00000049  00000-0  10000-3 0  9996
2 36402  65.8709  27.2893 0002253  83.7767  70.8074  2.13101285 80471
COSMOS 2464 (736)       
1 37139U 10041C   20185.22480021  .00000013  00000-0  00000-0 0  9998
2 37139  64.1687 265.3107 0025254  10.4177 348.4617  2.13100815 76534
COSMOS 2471 (701K)      
1 37372U 11009A   20185.18452160 -.00000048  00000-0  00000+0 0  9998
2 37372  65.8664  27.2357 0007579 221.7613 317.7150  2.13107506 72744
COSMOS 2476 (744)       
1 37867U 11064A   20184.73444826  .00000017  00000-0  00000+0 0  9993
2 37867  64.5304 146.6441 0021460 242.9159 310.6732  2.13101963 67456
COSMOS 2477 (745)       
1 37868U 11064B   20185.42490771  .00000009  00000-0  00000+0 0  9992
2 37868  64.5382 146.6767 0019085 244.6049 297.1794  2.13101892 67426
COSMOS 2475 (743)       
1 37869U 11064C   20184.53983387  .00000020  00000-0  00000+0 0  9997
2 37869  64.5464 146.7087 0023405 263.3037 276.8681  2.13102162 67419
COSMOS 2485 (747)       
1 39155U 13019A   20184.66437426  .00000019  00000-0  00000+0 0  9999
2 39155  64.6979 146.9184 0021856 238.6304 305.7682  2.13102059 55922
COSMOS 2492 (754)       
1 39620U 14012A   20184.78142970 -.00000047  00000-0  10000-3 0  9997
2 39620  65.7610  27.0897 0012772 334.1770 335.0791  2.13103259 48875
COSMOS 2500 (755)       
1 40001U 14032A   20185.29670840 -.00000049  00000-0  00000-0 0  9991
2 40001  65.7001  26.9857 0005358 186.8972  18.1875  2.13102701 47104
COSMOS 2501 (702K)      
1 40315U 14075A   20184.44018153  .00000004  00000-0  00000+0 0  9994
2 40315  63.8846 266.2789 0017190 207.1407 215.7639  2.13098801 43494
COSMOS 2514 (751)       
1 41330U 16008A   20184.76574105 -.00000048  00000-0  00000+0 0  9998
2 41330  65.5042  26.8724 0008339 204.8674 135.3303  2.13103062 34258
COSMOS 2516 (753)       
1 41554U 16032A   20184.93035324  .00000008  00000-0  00000-0 0  9993
2 41554  64.1084 266.3356 0013813 216.5416 140.7728  2.13101778 31863
COSMOS 2522 (752)       
1 42939U 17055A   20183.22532560 -.00000006  00000-0  00000+0 0  9990
2 42939  64.3410 266.5796 0008110 240.9614 114.8852  2.13101956 21587
COSMOS 2527 (756)       
1 43508U 18053A   20184.25687325  .00000025  00000-0  00000-0 0  9997
2 43508  64.8620 146.7830 0009145 244.1290 214.9133  2.13102660 15907
COSMOS 2529 (757)       
1 43687U 18086A   20184.22201965  .00000002  00000-0  00000-0 0  9995
2 43687  64.5549 266.6689 0010088 265.7705  90.3304  2.13102146 12917
COSMOS 2534 (758)       
1 44299U 19030A   20184.98741090  .00000009  00000-0  00000-0 0  9993
2 44299  64.6248 266.4604 0012888 285.4494  72.8811  2.13102122  8572
COSMOS 2544 (759)       
1 44850U 19088A   20184.17191786  .00000026  00000-0  00000+0 0  9999
2 44850  64.8461 146.6529 0013745 268.9397 168.9979  2.13102362  4349
COSMOS 2545 (760)       
1 45358U 20018A   20184.73618553 -.00000049  00000-0  00000-0 0  9993
2 45358  64.8333  28.0730 0006834 250.7532 110.4902  2.13102964  2309
